start=new Date('2022-07-22T00:00:00.000Z').valueOf();
sats=[{"PERIAPSIS":"546.325","MEAN_ANOMALY":"285.8912","PERIOD":"95.593","APOAPSIS":"548.209","EPOCH":"2022-07-21T14:52:34.286592","BSTAR":"-0.00003648800000","SITE":"AFETR","COUNTRY_CODE":"US","OBJECT_ID":"2021-036U","CLASSIFICATION_TYPE":"U","EPHEMERIS_TYPE":"0","ECCENTRICITY":"0.00013600","ELEMENT_SET_NO":"999","NORAD_CAT_ID":"48294","TIME_SYSTEM":"UTC","GP_ID":"208603403","TLE_LINE1":"1 48294U 21036U   22202.61984128 -.00000825  00000-0 -36488-4 0  9996","MEAN_ELEMENT_THEORY":"SGP4","LAUNCH_DATE":"2021-04-29","MEAN_MOTION":"15.06382623","MEAN_MOTION_DOT":"-0.00000825","CENTER_NAME":"EARTH","DECAY_DATE":null,"OBJECT_NAME":"STARLINK-2533","MEAN_MOTION_DDOT":"0.0000000000000","OBJECT_TYPE":"PAYLOAD","SEMIMAJOR_AXIS":"6925.402","RA_OF_ASC_NODE":"279.0711","REF_FRAME":"TEME","INCLINATION":"53.0537","RCS_SIZE":"LARGE","FILE":"3519265","TLE_LINE2":"2 48294  53.0537 279.0711 0001360  74.2227 285.8912 15.06382623 68299","ARG_OF_PERICENTER":"74.2227","REV_AT_EPOCH":"6829"},{"RA_OF_ASC_NODE":"278.7912","REF_FRAME":"TEME","SEMIMAJOR_AXIS":"6925.406","DECAY_DATE":null,"CENTER_NAME":"EARTH","MEAN_MOTION_DOT":"-0.00006624","LAUNCH_DATE":"2021-04-29","MEAN_MOTION":"15.06381384","OBJECT_TYPE":"PAYLOAD","MEAN_MOTION_DDOT":"0.0000000000000","OBJECT_NAME":"STARLINK-2535","ARG_OF_PERICENTER":"76.7454","REV_AT_EPOCH":"6830","RCS_SIZE":"LARGE","INCLINATION":"53.0546","TLE_LINE2":"2 48295  53.0546 278.7912 0001400  76.7454 283.3691 15.06381384 68305","FILE":"3519265","EPHEMERIS_TYPE":"0","OBJECT_ID":"2021-036V","CLASSIFICATION_TYPE":"U","COUNTRY_CODE":"US","APOAPSIS":"548.240","PERIOD":"95.593","MEAN_ANOMALY":"283.3691","PERIAPSIS":"546.301","SITE":"AFETR","BSTAR":"-0.00042643000000","EPOCH":"2022-07-21T16:22:46.484544","TLE_LINE1":"1 48295U 21036V   22202.68248246 -.00006624  00000-0 -42643-3 0  9990","MEAN_ELEMENT_THEORY":"SGP4","GP_ID":"208604148","ELEMENT_SET_NO":"999","ECCENTRICITY":"0.00014000","NORAD_CAT_ID":"48295","TIME_SYSTEM":"UTC"},{"RA_OF_ASC_NODE":"279.7030","REF_FRAME":"TEME","SEMIMAJOR_AXIS":"6925.362","MEAN_MOTION_DDOT":"0.0000000000000","OBJECT_NAME":"STARLINK-2546","OBJECT_TYPE":"PAYLOAD","MEAN_MOTION_DOT":"-0.00002378","MEAN_MOTION":"15.06395508","LAUNCH_DATE":"2021-04-29","DECAY_DATE":null,"CENTER_NAME":"EARTH","REV_AT_EPOCH":"6827","ARG_OF_PERICENTER":"81.7578","FILE":"3518988","TLE_LINE2":"2 48296  53.0543 279.7030 0001340  81.7578 278.3563 15.06395508 68272","INCLINATION":"53.0543","RCS_SIZE":"LARGE","CLASSIFICATION_TYPE":"U","OBJECT_ID":"2021-036W","COUNTRY_CODE":"US","EPHEMERIS_TYPE":"0","BSTAR":"-0.00014079000000","EPOCH":"2022-07-21T11:30:50.827680","SITE":"AFETR","MEAN_ANOMALY":"278.3563","PERIAPSIS":"546.299","APOAPSIS":"548.155","PERIOD":"95.592","MEAN_ELEMENT_THEORY":"SGP4","TLE_LINE1":"1 48296U 21036W   22202.47975495 -.00002378  00000-0 -14079-3 0  9995","ELEMENT_SET_NO":"999","ECCENTRICITY":"0.00013400","NORAD_CAT_ID":"48296","TIME_SYSTEM":"UTC","GP_ID":"208573335"},{"INCLINATION":"53.0551","RCS_SIZE":"LARGE","FILE":"3519265","TLE_LINE2":"2 48297  53.0551 279.1153 0001824  57.3553 302.7612 15.06383510 68290","ARG_OF_PERICENTER":"57.3553","REV_AT_EPOCH":"6829","MEAN_MOTION":"15.06383510","LAUNCH_DATE":"2021-04-29","MEAN_MOTION_DOT":"-0.00001820","CENTER_NAME":"EARTH","DECAY_DATE":null,"OBJECT_NAME":"STARLINK-2544","MEAN_MOTION_DDOT":"0.0000000000000","OBJECT_TYPE":"PAYLOAD","SEMIMAJOR_AXIS":"6925.399","REF_FRAME":"TEME","RA_OF_ASC_NODE":"279.1153","ELEMENT_SET_NO":"999","ECCENTRICITY":"0.00018240","NORAD_CAT_ID":"48297","TIME_SYSTEM":"UTC","GP_ID":"208603654","TLE_LINE1":"1 48297U 21036X   22202.60878417 -.00001820  00000-0 -10335-3 0  9999","MEAN_ELEMENT_THEORY":"SGP4","PERIAPSIS":"546.001","MEAN_ANOMALY":"302.7612","PERIOD":"95.593","APOAPSIS":"548.527","BSTAR":"-0.00010335000000","EPOCH":"2022-07-21T14:36:38.952288","SITE":"AFETR","COUNTRY_CODE":"US","CLASSIFICATION_TYPE":"U","OBJECT_ID":"2021-036X","EPHEMERIS_TYPE":"0"},{"LAUNCH_DATE":"2021-04-29","MEAN_MOTION":"15.06400438","MEAN_MOTION_DOT":"0.00001126","CENTER_NAME":"EARTH","DECAY_DATE":null,"OBJECT_NAME":"STARLINK-2559","MEAN_MOTION_DDOT":"0.0000000000000","OBJECT_TYPE":"PAYLOAD","SEMIMAJOR_AXIS":"6925.347","REF_FRAME":"TEME","RA_OF_ASC_NODE":"279.1399","INCLINATION":"53.0541","RCS_SIZE":"LARGE","FILE":"3519265","TLE_LINE2":"2 48298  53.0541 279.1399 0001248  74.1132 285.9994 15.06400438 68296","ARG_OF_PERICENTER":"74.1132","REV_AT_EPOCH":"6829","PERIAPSIS":"546.348","MEAN_ANOMALY":"285.9994","PERIOD":"95.592","APOAPSIS":"548.076","BSTAR":"0.00009447700000","EPOCH":"2022-07-21T14:31:18.591456","SITE":"AFETR","COUNTRY_CODE":"US","CLASSIFICATION_TYPE":"U","OBJECT_ID":"2021-036Y","EPHEMERIS_TYPE":"0","ELEMENT_SET_NO":"999","ECCENTRICITY":"0.00012480","NORAD_CAT_ID":"48298","TIME_SYSTEM":"UTC","GP_ID":"208603904","TLE_LINE1":"1 48298U 21036Y   22202.60507629  .00001126  00000-0  94477-4 0  9991","MEAN_ELEMENT_THEORY":"SGP4"},{"SEMIMAJOR_AXIS":"6925.366","REF_FRAME":"TEME","RA_OF_ASC_NODE":"279.4448","OBJECT_NAME":"STARLINK-2557","MEAN_MOTION_DDOT":"0.0000000000000","OBJECT_TYPE":"PAYLOAD","MEAN_MOTION":"15.06394257","LAUNCH_DATE":"2021-04-29","MEAN_MOTION_DOT":"-0.00001058","CENTER_NAME":"EARTH","DECAY_DATE":null,"REV_AT_EPOCH":"6828","ARG_OF_PERICENTER":"64.8096","FILE":"3519265","TLE_LINE2":"2 48299  53.0532 279.4448 0001496  64.8096 295.3048 15.06394257 68280","INCLINATION":"53.0532","RCS_SIZE":"MEDIUM","COUNTRY_CODE":"US","OBJECT_ID":"2021-036Z","CLASSIFICATION_TYPE":"U","EPHEMERIS_TYPE":"0","EPOCH":"2022-07-21T12:50:28.604256","BSTAR":"-0.00005215900000","SITE":"AFETR","PERIAPSIS":"546.195","MEAN_ANOMALY":"295.3048","PERIOD":"95.593","APOAPSIS":"548.267","MEAN_ELEMENT_THEORY":"SGP4","TLE_LINE1":"1 48299U 21036Z   22202.53505329 -.00001058  00000-0 -52159-4 0  9996","ECCENTRICITY":"0.00014960","ELEMENT_SET_NO":"999","NORAD_CAT_ID":"48299","TIME_SYSTEM":"UTC","GP_ID":"208604649"},{"REV_AT_EPOCH":"6814","ARG_OF_PERICENTER":"72.3776","FILE":"3518988","TLE_LINE2":"2 48300  53.0526 289.4836 0001553  72.3776 287.7383 15.06374767 68147","INCLINATION":"53.0526","RCS_SIZE":"LARGE","REF_FRAME":"TEME","RA_OF_ASC_NODE":"289.4836","SEMIMAJOR_AXIS":"6925.426","MEAN_MOTION_DDOT":"0.0000000000000","OBJECT_NAME":"STARLINK-2538","OBJECT_TYPE":"PAYLOAD","MEAN_MOTION_DOT":"-0.00013402","LAUNCH_DATE":"2021-04-29","MEAN_MOTION":"15.06374767","DECAY_DATE":null,"CENTER_NAME":"EARTH","MEAN_ELEMENT_THEORY":"SGP4","TLE_LINE1":"1 48300U 21036AA  22202.52674701 -.00013402  00000-0 -88308-3 0  9999","ELEMENT_SET_NO":"999","ECCENTRICITY":"0.00015530","NORAD_CAT_ID":"48300","TIME_SYSTEM":"UTC","GP_ID":"208573836","OBJECT_ID":"2021-036AA","CLASSIFICATION_TYPE":"U","COUNTRY_CODE":"US","EPHEMERIS_TYPE":"0","BSTAR":"-0.00088308000000","EPOCH":"2022-07-21T12:38:30.941664","SITE":"AFETR","MEAN_ANOMALY":"287.7383","PERIAPSIS":"546.215","APOAPSIS":"548.366","PERIOD":"95.594"},{"TLE_LINE1":"1 48301U 21036AB  22202.65576294 -.00006973  00000-0 -44994-3 0  9990","MEAN_ELEMENT_THEORY":"SGP4","NORAD_CAT_ID":"48301","ELEMENT_SET_NO":"999","ECCENTRICITY":"0.00014630","TIME_SYSTEM":"UTC","GP_ID":"208603154","COUNTRY_CODE":"US","CLASSIFICATION_TYPE":"U","OBJECT_ID":"2021-036AB","EPHEMERIS_TYPE":"0","PERIAPSIS":"546.272","MEAN_ANOMALY":"278.4840","PERIOD":"95.594","APOAPSIS":"548.298","EPOCH":"2022-07-21T15:44:17.918016","BSTAR":"-0.00044994000000","SITE":"AFETR","ARG_OF_PERICENTER":"81.6314","REV_AT_EPOCH":"6815","INCLINATION":"53.0539","RCS_SIZE":"LARGE","FILE":"3519265","TLE_LINE2":"2 48301  53.0539 288.9120 0001463  81.6314 278.4840 15.06376622 68151","SEMIMAJOR_AXIS":"6925.420","REF_FRAME":"TEME","RA_OF_ASC_NODE":"288.9120","LAUNCH_DATE":"2021-04-29","MEAN_MOTION":"15.06376622","MEAN_MOTION_DOT":"-0.00006973","CENTER_NAME":"EARTH","DECAY_DATE":null,"OBJECT_NAME":"STARLINK-2537","MEAN_MOTION_DDOT":"0.0000000000000","OBJECT_TYPE":"PAYLOAD"},{"MEAN_MOTION_DOT":"-0.00003129","LAUNCH_DATE":"2021-04-29","MEAN_MOTION":"15.06380543","DECAY_DATE":null,"CENTER_NAME":"EARTH","MEAN_MOTION_DDOT":"0.0000000000000","OBJECT_NAME":"STARLINK-2556","OBJECT_TYPE":"PAYLOAD","RA_OF_ASC_NODE":"288.6208","REF_FRAME":"TEME","SEMIMAJOR_AXIS":"6925.408","INCLINATION":"53.0523","RCS_SIZE":"LARGE","FILE":"3519265","TLE_LINE2":"2 48302  53.0523 288.6208 0001264  71.1674 288.9452 15.06380543 68164","ARG_OF_PERICENTER":"71.1674","REV_AT_EPOCH":"6816","MEAN_ANOMALY":"288.9452","PERIAPSIS":"546.398","APOAPSIS":"548.149","PERIOD":"95.593","BSTAR":"-0.00019136000000","EPOCH":"2022-07-21T17:14:32.721792","SITE":"AFETR","CLASSIFICATION_TYPE":"U","OBJECT_ID":"2021-036AC","COUNTRY_CODE":"US","EPHEMERIS_TYPE":"0","ECCENTRICITY":"0.00012640","ELEMENT_SET_NO":"999","NORAD_CAT_ID":"48302","TIME_SYSTEM":"UTC","GP_ID":"208603404","TLE_LINE1":"1 48302U 21036AC  22202.71843428 -.00003129  00000-0 -19136-3 0  9994","MEAN_ELEMENT_THEORY":"SGP4"},{"SITE":"AFETR","EPOCH":"2022-07-21T17:07:51.718656","BSTAR":"-0.00026202000000","APOAPSIS":"548.370","PERIOD":"95.593","MEAN_ANOMALY":"289.9680","PERIAPSIS":"546.171","EPHEMERIS_TYPE":"0","CLASSIFICATION_TYPE":"U","OBJECT_ID":"2021-036AD","COUNTRY_CODE":"US","GP_ID":"208604149","NORAD_CAT_ID":"48303","ELEMENT_SET_NO":"999","ECCENTRICITY":"0.00015880","TIME_SYSTEM":"UTC","MEAN_ELEMENT_THEORY":"SGP4","TLE_LINE1":"1 48303U 21036AD  22202.71379304 -.00004180  00000-0 -26202-3 0  9992","OBJECT_TYPE":"PAYLOAD","MEAN_MOTION_DDOT":"0.0000000000000","OBJECT_NAME":"STARLINK-2530","DECAY_DATE":null,"CENTER_NAME":"EARTH","MEAN_MOTION_DOT":"-0.00004180","MEAN_MOTION":"15.06381377","LAUNCH_DATE":"2021-04-29","RA_OF_ASC_NODE":"288.6406","REF_FRAME":"TEME","SEMIMAJOR_AXIS":"6925.406","TLE_LINE2":"2 48303  53.0543 288.6406 0001588  70.1480 289.9680 15.06381377 68160","FILE":"3519265","RCS_SIZE":"LARGE","INCLINATION":"53.0543","REV_AT_EPOCH":"6816","ARG_OF_PERICENTER":"70.1480"}];
